{"type": "FeatureCollection", "features": [ {"type": "Feature", "properties": {"norad_id": 59598, "name": "GSAT0225 (GALILEO 29)", "group": "gnss", "lat": 21.65813064535202, "lon": -89.99210263245422, "alt_km": 23213.908408715222, "timestamp": "2025-12-17T19:34:08.282634+00:00", "meta": {"OBJECT_NAME": "GSAT0225 (GALILEO 29)", "OBJECT_ID": "2024-079A", "EPOCH": "2025-12-16T09:22:38.225280", "MEAN_MOTION": 1.70475011, "ECCENTRICITY": 0.00021396, "INCLINATION": 55.0038, "RA_OF_ASC_NODE": 106.1932, "ARG_OF_PERICENTER": 182.0305, "MEAN_ANOMALY": 176.7742, "EPHEMERIS_TYPE": 0, "CLASSIFICATION_TYPE": "U", "NORAD_CAT_ID": 59598, "ELEMENT_SET_NO": 999, "REV_AT_EPOCH": 1019, "BSTAR": 0, "MEAN_MOTION_DOT": -1e-07, "MEAN_MOTION_DDOT": 0}, "tle": {"line1": "1 59598U 24079A   25350.39072020 -.00000010  00000+0  00000+0 0  9996", "line2": "2 59598  55.0038 106.1932 0002139 182.0305 176.7742  1.70475011 10196"}}, "geometry": {"type": "Point", "coordinates": [-89.99210263245422, 21.65813064535202]}}, {"type": "Feature", "properties": {"norad_id": 59600, "name": "GSAT0227 (GALILEO 30)", "group": "gnss", "lat": 32.23761302363299, "lon": 132.3325201877768, "alt_km": 23215.758231734046, "timestamp": "2025-12-17T19:34:08.282646+00:00", "meta": {"OBJECT_NAME": "GSAT0227 (GALILEO 30)", "OBJECT_ID": "2024-079C", "EPOCH": "2025-12-15T23:44:48.318432", "MEAN_MOTION": 1.70474874, "ECCENTRICITY": 0.00030998, "INCLINATION": 54.9987, "RA_OF_ASC_NODE": 106.2033, "ARG_OF_PERICENTER": 115.4904, "MEAN_ANOMALY": 244.5024, "EPHEMERIS_TYPE": 0, "CLASSIFICATION_TYPE": "U", "NORAD_CAT_ID": 59600, "ELEMENT_SET_NO": 999, "REV_AT_EPOCH": 1024, "BSTAR": 0, "MEAN_MOTION_DOT": -9e-08, "MEAN_MOTION_DDOT": 0}, "tle": {"line1": "1 59600U 24079C   25349.98944813 -.00000009  00000+0  00000+0 0  9999", "line2": "2 59600  54.9987 106.2033 0003099 115.4904 244.5024  1.70474874 10244"}}, "geometry": {"type": "Point", "coordinates": [132.3325201877768, 32.23761302363299]}}, {"type": "Feature", "properties": {"norad_id": 61182, "name": "GSAT0232 (GALILEO 32)", "group": "gnss", "lat": -42.34302239799218, "lon": 85.52453075359382, "alt_km": 23222.127204676475, "timestamp": "2025-12-17T19:34:08.282657+00:00", "meta": {"OBJECT_NAME": "GSAT0232 (GALILEO 32)", "OBJECT_ID": "2024-167A", "EPOCH": "2025-12-15T09:09:10.050912", "MEAN_MOTION": 1.70473627, "ECCENTRICITY": 0.00018812, "INCLINATION": 55.2399, "RA_OF_ASC_NODE": 226.3583, "ARG_OF_PERICENTER": 210.2547, "MEAN_ANOMALY": 331.0661, "EPHEMERIS_TYPE": 0, "CLASSIFICATION_TYPE": "U", "NORAD_CAT_ID": 61182, "ELEMENT_SET_NO": 999, "REV_AT_EPOCH": 774, "BSTAR": 0, "MEAN_MOTION_DOT": 4.1e-07, "MEAN_MOTION_DDOT": 0}, "tle": {"line1": "1 61182U 24167A   25349.38136633  .00000041  00000+0  00000+0 0  9997", "line2": "2 61182  55.2399 226.3583 0001881 210.2547 331.0661  1.70473627  7746"}}, "geometry": {"type": "Point", "coordinates": [85.52453075359382, -42.34302239799218]}}, {"type": "Feature", "properties": {"norad_id": 61183, "name": "GSAT0226 (GALILEO 31)", "group": "gnss", "lat": -10.103042798221917, "lon": -140.79473108740694, "alt_km": 23225.227785598887, "timestamp": "2025-12-17T19:34:08.282668+00:00", "meta": {"OBJECT_NAME": "GSAT0226 (GALILEO 31)", "OBJECT_ID": "2024-167B", "EPOCH": "2025-12-12T20:26:08.685024", "MEAN_MOTION": 1.70473602, "ECCENTRICITY": 8.42e-05, "INCLINATION": 55.2391, "RA_OF_ASC_NODE": 226.433, "ARG_OF_PERICENTER": 113.0334, "MEAN_ANOMALY": 68.3038, "EPHEMERIS_TYPE": 0, "CLASSIFICATION_TYPE": "U", "NORAD_CAT_ID": 61183, "ELEMENT_SET_NO": 999, "REV_AT_EPOCH": 767, "BSTAR": 0, "MEAN_MOTION_DOT": 1.9e-07, "MEAN_MOTION_DDOT": 0}, "tle": {"line1": "1 61183U 24167B   25346.85148941  .00000019  00000+0  00000+0 0  9997", "line2": "2 61183  55.2391 226.4330 0000842 113.0334  68.3038  1.70473602  7673"}}, "geometry": {"type": "Point", "coordinates": [-140.79473108740694, -10.103042798221917]}}, {"type": "Feature", "properties": {"norad_id": 61186, "name": "BEIDOU-3 M25 (C47)", "group": "gnss", "lat": -52.84769106376124, "lon": -162.01264262667252, "alt_km": 21522.373936923126, "timestamp": "2025-12-17T19:34:08.282679+00:00", "meta": {"OBJECT_NAME": "BEIDOU-3 M25 (C47)", "OBJECT_ID": "2024-168B", "EPOCH": "2025-12-16T21:28:07.627872", "MEAN_MOTION": 1.86230288, "ECCENTRICITY": 0.00054374, "INCLINATION": 54.6383, "RA_OF_ASC_NODE": 308.576, "ARG_OF_PERICENTER": 298.7489, "MEAN_ANOMALY": 61.643, "EPHEMERIS_TYPE": 0, "CLASSIFICATION_TYPE": "U", "NORAD_CAT_ID": 61186, "ELEMENT_SET_NO": 999, "REV_AT_EPOCH": 839, "BSTAR": 0, "MEAN_MOTION_DOT": -9.4e-07, "MEAN_MOTION_DDOT": 0}, "tle": {"line1": "1 61186U 24168B   25350.89453273 -.00000094  00000+0  00000+0 0  9991", "line2": "2 61186  54.6383 308.5760 0005437 298.7489  61.6430  1.86230288  8396"}}, "geometry": {"type": "Point", "coordinates": [-162.01264262667252, -52.84769106376124]}}, {"type": "Feature", "properties": {"norad_id": 61187, "name": "BEIDOU-3 M27 (C49)", "group": "gnss", "lat": 26.180666637814785, "lon": -31.074227524772336, "alt_km": 21520.834349683453, "timestamp": "2025-12-17T19:34:08.282694+00:00", "meta": {"OBJECT_NAME": "BEIDOU-3 M27 (C49)", "OBJECT_ID": "2024-168C", "EPOCH": "2025-12-17T05:27:07.832736", "MEAN_MOTION": 1.86230439, "ECCENTRICITY": 0.00024902, "INCLINATION": 54.6334, "RA_OF_ASC_NODE": 308.5482, "ARG_OF_PERICENTER": 338.8897, "MEAN_ANOMALY": 19.4657, "EPHEMERIS_TYPE": 0, "CLASSIFICATION_TYPE": "U", "NORAD_CAT_ID": 61187, "ELEMENT_SET_NO": 999, "REV_AT_EPOCH": 586, "BSTAR": 0, "MEAN_MOTION_DOT": -9.2e-07, "MEAN_MOTION_DDOT": 0}, "tle": {"line1": "1 61187U 24168C   25351.22717399 -.00000092  00000+0  00000+0 0  9990", "line2": "2 61187  54.6334 308.5482 0002490 338.8897  19.4657  1.86230439  5868"}}, "geometry": {"type": "Point", "coordinates": [-31.074227524772336, 26.180666637814785]}}, {"type": "Feature", "properties": {"norad_id": 62339, "name": "GPS BIII-7  (PRN 01)", "group": "gnss", "lat": -27.620545235718783, "lon": -40.044789726835546, "alt_km": 20154.362726689626, "timestamp": "2025-12-17T19:34:08.282705+00:00", "meta": {"OBJECT_NAME": "GPS BIII-7  (PRN 01)", "OBJECT_ID": "2024-242A", "EPOCH": "2025-12-16T08:50:11.332608", "MEAN_MOTION": 2.00568131, "ECCENTRICITY": 0.00124404, "INCLINATION": 54.9226, "RA_OF_ASC_NODE": 341.593, "ARG_OF_PERICENTER": 345.4157, "MEAN_ANOMALY": 15.1615, "EPHEMERIS_TYPE": 0, "CLASSIFICATION_TYPE": "U", "NORAD_CAT_ID": 62339, "ELEMENT_SET_NO": 999, "REV_AT_EPOCH": 759, "BSTAR": 0, "MEAN_MOTION_DOT": -9e-07, "MEAN_MOTION_DDOT": 0}, "tle": {"line1": "1 62339U 24242A   25350.36818672 -.00000090  00000+0  00000+0 0  9991", "line2": "2 62339  54.9226 341.5930 0012440 345.4157  15.1615  2.00568131  7594"}}, "geometry": {"type": "Point", "coordinates": [-40.044789726835546, -27.620545235718783]}}, {"type": "Feature", "properties": {"norad_id": 62850, "name": "NVS-02 (IRNSS-1K)", "group": "gnss", "lat": -8.952865325557708, "lon": 170.08446810814323, "alt_km": 36964.87560726893, "timestamp": "2025-12-17T19:34:08.282719+00:00", "meta": {"OBJECT_NAME": "NVS-02 (IRNSS-1K)", "OBJECT_ID": "2025-020A", "EPOCH": "2025-12-17T03:26:28.667904", "MEAN_MOTION": 2.17598656, "ECCENTRICITY": 0.73474388, "INCLINATION": 20.9719, "RA_OF_ASC_NODE": 326.0652, "ARG_OF_PERICENTER": 29.0913, "MEAN_ANOMALY": 356.91, "EPHEMERIS_TYPE": 0, "CLASSIFICATION_TYPE": "U", "NORAD_CAT_ID": 62850, "ELEMENT_SET_NO": 999, "REV_AT_EPOCH": 701, "BSTAR": 0.00024546704, "MEAN_MOTION_DOT": 4.77e-06, "MEAN_MOTION_DDOT": 0}, "tle": {"line1": "1 62850U 25020A   25351.14338736  .00000477  00000+0  24547-3 0  9993", "line2": "2 62850  20.9719 326.0652 7347438  29.0913 356.9100  2.17598656  7016"}}, "geometry": {"type": "Point", "coordinates": [170.08446810814323, -8.952865325557708]}}, {"type": "Feature", "properties": {"norad_id": 62876, "name": "QZS-6 (QZSS/PRN 200)", "group": "gnss", "lat": 0.04545077055450892, "lon": 110.73715032597057, "alt_km": 35791.82919927476, "timestamp": "2025-12-17T19:34:08.282731+00:00", "meta": {"OBJECT_NAME": "QZS-6 (QZSS/PRN 200)", "OBJECT_ID": "2025-023A", "EPOCH": "2025-12-17T02:39:38.687616", "MEAN_MOTION": 1.00273531, "ECCENTRICITY": 0.00015107, "INCLINATION": 0.0423, "RA_OF_ASC_NODE": 65.1827, "ARG_OF_PERICENTER": 210.8571, "MEAN_ANOMALY": 300.3917, "EPHEMERIS_TYPE": 0, "CLASSIFICATION_TYPE": "U", "NORAD_CAT_ID": 62876, "ELEMENT_SET_NO": 999, "REV_AT_EPOCH": 313, "BSTAR": 0, "MEAN_MOTION_DOT": -2.09e-06, "MEAN_MOTION_DDOT": 0}, "tle": {"line1": "1 62876U 25023A   25351.11086444 -.00000209  00000+0  00000+0 0  9995", "line2": "2 62876   0.0423  65.1827 0001510 210.8571 300.3917  1.00273531  3132"}}, "geometry": {"type": "Point", "coordinates": [110.73715032597057, 0.04545077055450892]}}, {"type": "Feature", "properties": {"norad_id": 63130, "name": "COSMOS 2584 (704K)", "group": "gnss", "lat": -29.66727276492309, "lon": -85.61625763957892, "alt_km": 19114.291011096448, "timestamp": "2025-12-17T19:34:08.282742+00:00", "meta": {"OBJECT_NAME": "COSMOS 2584 (704K)", "OBJECT_ID": "2025-042A", "EPOCH": "2025-12-14T17:19:43.603680", "MEAN_MOTION": 2.13103043, "ECCENTRICITY": 0.00076907, "INCLINATION": 64.977, "RA_OF_ASC_NODE": 79.0784, "ARG_OF_PERICENTER": 217.9412, "MEAN_ANOMALY": 142.0178, "EPHEMERIS_TYPE": 0, "CLASSIFICATION_TYPE": "U", "NORAD_CAT_ID": 63130, "ELEMENT_SET_NO": 999, "REV_AT_EPOCH": 611, "BSTAR": 0, "MEAN_MOTION_DOT": -5.6e-07, "MEAN_MOTION_DDOT": 0}, "tle": {"line1": "1 63130U 25042A   25348.72203245 -.00000056  00000+0  00000+0 0  9993", "line2": "2 63130  64.9770  79.0784 0007690 217.9412 142.0178  2.13103043  6119"}}, "geometry": {"type": "Point", "coordinates": [-85.61625763957892, -29.66727276492309]}}]}